start=new Date('2022-09-22T00:00:00.000Z').valueOf();
sats=[{"ELEMENT_SET_NO":"999","TIME_SYSTEM":"UTC","SITE":"AFETR","TLE_LINE2":"2 52003  53.2178 299.3571 0001546  72.5820 287.5342 15.08847524 29909","OBJECT_TYPE":"PAYLOAD","RCS_SIZE":"LARGE","PERIAPSIS":"538.653","OBJECT_ID":"2022-025AZ","GP_ID":"213193118","BSTAR":"0.00011344000000","ARG_OF_PERICENTER":"72.5820","CLASSIFICATION_TYPE":"U","DECAY_DATE":null,"OBJECT_NAME":"STARLINK-3654","RA_OF_ASC_NODE":"299.3571","CENTER_NAME":"EARTH","MEAN_MOTION_DOT":"0.00001518","FILE":"3579752","NORAD_CAT_ID":"52003","MEAN_MOTION":"15.08847524","REF_FRAME":"TEME","EPHEMERIS_TYPE":"0","PERIOD":"95.437","EPOCH":"2022-09-21T08:51:40.415328","LAUNCH_DATE":"2022-03-09","MEAN_ELEMENT_THEORY":"SGP4","SEMIMAJOR_AXIS":"6917.857","MEAN_ANOMALY":"287.5342","INCLINATION":"53.2178","COUNTRY_CODE":"US","ECCENTRICITY":"0.00015460","REV_AT_EPOCH":"2990","TLE_LINE1":"1 52003U 22025AZ  22264.36921777  .00001518  00000-0  11344-3 0  9990","MEAN_MOTION_DDOT":"0.0000000000000","APOAPSIS":"540.792"},{"EPOCH":"2022-09-21T11:19:27.731136","PERIOD":"91.328","LAUNCH_DATE":"2022-03-19","MEAN_ANOMALY":"330.4705","SEMIMAJOR_AXIS":"6717.848","MEAN_ELEMENT_THEORY":"SGP4","COUNTRY_CODE":"US","INCLINATION":"53.2020","CENTER_NAME":"EARTH","MEAN_MOTION_DOT":"0.00007333","RA_OF_ASC_NODE":"291.8131","FILE":"3579335","NORAD_CAT_ID":"52088","MEAN_MOTION":"15.76730775","REF_FRAME":"TEME","EPHEMERIS_TYPE":"0","REV_AT_EPOCH":"3072","TLE_LINE1":"1 52088U 22029A   22264.47184874  .00007333  00000-0  48772-4 0  9995","ECCENTRICITY":"0.00030280","MEAN_MOTION_DDOT":"0.0000000000000","APOAPSIS":"341.747","OBJECT_TYPE":"PAYLOAD","RCS_SIZE":"LARGE","TIME_SYSTEM":"UTC","SITE":"AFETR","ELEMENT_SET_NO":"999","TLE_LINE2":"2 52088  53.2020 291.8131 0003028  29.6488 330.4705 15.76730775 30724","GP_ID":"213160437","OBJECT_ID":"2022-029A","ARG_OF_PERICENTER":"29.6488","BSTAR":"0.00004877200000","DECAY_DATE":null,"CLASSIFICATION_TYPE":"U","OBJECT_NAME":"STARLINK-3537","PERIAPSIS":"337.678"},{"ECCENTRICITY":"0.00016470","TLE_LINE1":"1 52089U 22029B   22264.77126681  .00000345  00000-0  39785-4 0  9991","REV_AT_EPOCH":"2969","MEAN_MOTION_DDOT":"0.0000000000000","APOAPSIS":"540.878","EPOCH":"2022-09-21T18:30:37.452384","PERIOD":"95.437","LAUNCH_DATE":"2022-03-19","MEAN_ANOMALY":"302.6021","SEMIMAJOR_AXIS":"6917.874","MEAN_ELEMENT_THEORY":"SGP4","INCLINATION":"53.2180","COUNTRY_CODE":"US","RA_OF_ASC_NODE":"7.5483","MEAN_MOTION_DOT":"0.00000345","CENTER_NAME":"EARTH","NORAD_CAT_ID":"52089","FILE":"3579752","MEAN_MOTION":"15.08842076","REF_FRAME":"TEME","EPHEMERIS_TYPE":"0","OBJECT_ID":"2022-029B","GP_ID":"213192625","BSTAR":"0.00003978500000","ARG_OF_PERICENTER":"57.5130","DECAY_DATE":null,"OBJECT_NAME":"STARLINK-3722","CLASSIFICATION_TYPE":"U","PERIAPSIS":"538.600","OBJECT_TYPE":"PAYLOAD","RCS_SIZE":"LARGE","ELEMENT_SET_NO":"999","TIME_SYSTEM":"UTC","SITE":"AFETR","TLE_LINE2":"2 52089  53.2180   7.5483 0001647  57.5130 302.6021 15.08842076 29692"},{"APOAPSIS":"540.995","MEAN_MOTION_DDOT":"0.0000000000000","ECCENTRICITY":"0.00017760","REV_AT_EPOCH":"2963","TLE_LINE1":"1 52090U 22029C   22264.36279470 -.00000076  00000-0  13338-4 0  9991","INCLINATION":"53.2188","COUNTRY_CODE":"US","SEMIMAJOR_AXIS":"6917.901","MEAN_ELEMENT_THEORY":"SGP4","MEAN_ANOMALY":"318.3704","LAUNCH_DATE":"2022-03-19","PERIOD":"95.438","EPOCH":"2022-09-21T08:42:25.462080","EPHEMERIS_TYPE":"0","REF_FRAME":"TEME","FILE":"3579752","MEAN_MOTION":"15.08833172","NORAD_CAT_ID":"52090","RA_OF_ASC_NODE":"9.3892","CENTER_NAME":"EARTH","MEAN_MOTION_DOT":"-0.00000076","CLASSIFICATION_TYPE":"U","DECAY_DATE":null,"OBJECT_NAME":"STARLINK-3712","BSTAR":"0.00001333800000","ARG_OF_PERICENTER":"41.7423","OBJECT_ID":"2022-029C","GP_ID":"213191381","PERIAPSIS":"538.538","RCS_SIZE":"LARGE","OBJECT_TYPE":"PAYLOAD","TLE_LINE2":"2 52090  53.2188   9.3892 0001776  41.7423 318.3704 15.08833172 29632","ELEMENT_SET_NO":"999","TIME_SYSTEM":"UTC","SITE":"AFETR"},{"FILE":"3579752","MEAN_MOTION":"15.08839576","NORAD_CAT_ID":"52091","RA_OF_ASC_NODE":"7.8697","MEAN_MOTION_DOT":"-0.00000053","CENTER_NAME":"EARTH","EPHEMERIS_TYPE":"0","REF_FRAME":"TEME","LAUNCH_DATE":"2022-03-19","EPOCH":"2022-09-21T16:49:56.418816","PERIOD":"95.438","INCLINATION":"53.2200","COUNTRY_CODE":"US","SEMIMAJOR_AXIS":"6917.882","MEAN_ANOMALY":"320.8084","MEAN_ELEMENT_THEORY":"SGP4","MEAN_MOTION_DDOT":"0.0000000000000","ECCENTRICITY":"0.00020220","TLE_LINE1":"1 52091U 22029D   22264.70134744 -.00000053  00000-0  14788-4 0  9999","REV_AT_EPOCH":"2968","APOAPSIS":"541.145","ELEMENT_SET_NO":"999","SITE":"AFETR","TIME_SYSTEM":"UTC","TLE_LINE2":"2 52091  53.2200   7.8697 0002022  39.3055 320.8084 15.08839576 29681","OBJECT_TYPE":"PAYLOAD","RCS_SIZE":"LARGE","PERIAPSIS":"538.348","BSTAR":"0.00001478800000","ARG_OF_PERICENTER":"39.3055","OBJECT_ID":"2022-029D","GP_ID":"213192132","DECAY_DATE":null,"OBJECT_NAME":"STARLINK-3713","CLASSIFICATION_TYPE":"U"},{"REV_AT_EPOCH":"2966","TLE_LINE1":"1 52092U 22029E   22264.56518914 -.00000413  00000-0 -78519-5 0  9993","ECCENTRICITY":"0.00017570","MEAN_MOTION_DDOT":"0.0000000000000","APOAPSIS":"540.949","EPOCH":"2022-09-21T13:33:52.341696","PERIOD":"95.437","LAUNCH_DATE":"2022-03-19","SEMIMAJOR_AXIS":"6917.869","MEAN_ANOMALY":"310.2924","MEAN_ELEMENT_THEORY":"SGP4","COUNTRY_CODE":"US","INCLINATION":"53.2180","MEAN_MOTION_DOT":"-0.00000413","CENTER_NAME":"EARTH","RA_OF_ASC_NODE":"8.4844","MEAN_MOTION":"15.08843838","FILE":"3579752","NORAD_CAT_ID":"52092","REF_FRAME":"TEME","EPHEMERIS_TYPE":"0","GP_ID":"213192383","OBJECT_ID":"2022-029E","ARG_OF_PERICENTER":"49.8222","BSTAR":"-0.00000785190000","OBJECT_NAME":"STARLINK-3716","DECAY_DATE":null,"CLASSIFICATION_TYPE":"U","PERIAPSIS":"538.518","OBJECT_TYPE":"PAYLOAD","RCS_SIZE":"LARGE","SITE":"AFETR","TIME_SYSTEM":"UTC","ELEMENT_SET_NO":"999","TLE_LINE2":"2 52092  53.2180   8.4844 0001757  49.8222 310.2924 15.08843838 29666"},{"LAUNCH_DATE":"2022-03-19","EPOCH":"2022-09-21T16:28:44.983200","PERIOD":"95.438","INCLINATION":"53.2187","COUNTRY_CODE":"US","MEAN_ELEMENT_THEORY":"SGP4","SEMIMAJOR_AXIS":"6917.894","MEAN_ANOMALY":"312.4035","MEAN_MOTION":"15.08835577","FILE":"3579752","NORAD_CAT_ID":"52093","RA_OF_ASC_NODE":"7.9530","CENTER_NAME":"EARTH","MEAN_MOTION_DOT":"0.00001178","EPHEMERIS_TYPE":"0","REF_FRAME":"TEME","MEAN_MOTION_DDOT":"0.0000000000000","ECCENTRICITY":"0.00017620","REV_AT_EPOCH":"2968","TLE_LINE1":"1 52093U 22029F   22264.68663175  .00001178  00000-0  92124-4 0  9991","APOAPSIS":"540.978","OBJECT_TYPE":"PAYLOAD","RCS_SIZE":"LARGE","ELEMENT_SET_NO":"999","SITE":"AFETR","TIME_SYSTEM":"UTC","TLE_LINE2":"2 52093  53.2187   7.9530 0001762  47.7106 312.4035 15.08835577 29684","BSTAR":"0.00009212400000","ARG_OF_PERICENTER":"47.7106","OBJECT_ID":"2022-029F","GP_ID":"213193126","CLASSIFICATION_TYPE":"U","DECAY_DATE":null,"OBJECT_NAME":"STARLINK-3673","PERIAPSIS":"538.540"},{"MEAN_MOTION_DDOT":"0.0000000000000","ECCENTRICITY":"0.00016110","TLE_LINE1":"1 52094U 22029G   22264.55783377  .00000242  00000-0  33321-4 0  9990","REV_AT_EPOCH":"2966","APOAPSIS":"540.863","LAUNCH_DATE":"2022-03-19","PERIOD":"95.438","EPOCH":"2022-09-21T13:23:16.837728","INCLINATION":"53.2201","COUNTRY_CODE":"US","MEAN_ELEMENT_THEORY":"SGP4","SEMIMAJOR_AXIS":"6917.883","MEAN_ANOMALY":"306.8258","MEAN_MOTION":"15.08839019","FILE":"3579752","NORAD_CAT_ID":"52094","RA_OF_ASC_NODE":"8.5178","CENTER_NAME":"EARTH","MEAN_MOTION_DOT":"0.00000242","EPHEMERIS_TYPE":"0","REF_FRAME":"TEME","BSTAR":"0.00003332100000","ARG_OF_PERICENTER":"53.2882","OBJECT_ID":"2022-029G","GP_ID":"213191882","OBJECT_NAME":"STARLINK-3714","DECAY_DATE":null,"CLASSIFICATION_TYPE":"U","PERIAPSIS":"538.634","OBJECT_TYPE":"PAYLOAD","RCS_SIZE":"LARGE","ELEMENT_SET_NO":"999","SITE":"AFETR","TIME_SYSTEM":"UTC","TLE_LINE2":"2 52094  53.2201   8.5178 0001611  53.2882 306.8258 15.08839019 29660"},{"COUNTRY_CODE":"US","INCLINATION":"53.2189","SEMIMAJOR_AXIS":"6917.848","MEAN_ANOMALY":"305.5990","MEAN_ELEMENT_THEORY":"SGP4","LAUNCH_DATE":"2022-03-19","EPOCH":"2022-09-21T14:42:45.287424","PERIOD":"95.437","EPHEMERIS_TYPE":"0","REF_FRAME":"TEME","NORAD_CAT_ID":"52095","FILE":"3579752","MEAN_MOTION":"15.08850700","MEAN_MOTION_DOT":"-0.00000361","CENTER_NAME":"EARTH","RA_OF_ASC_NODE":"8.2813","APOAPSIS":"540.734","MEAN_MOTION_DDOT":"0.0000000000000","REV_AT_EPOCH":"2967","TLE_LINE1":"1 52095U 22029H   22264.61302416 -.00000361  00000-0 -45871-5 0  9997","ECCENTRICITY":"0.00014770","RCS_SIZE":"LARGE","OBJECT_TYPE":"PAYLOAD","TLE_LINE2":"2 52095  53.2189   8.2813 0001477  54.5140 305.5990 15.08850700 29670","SITE":"AFETR","TIME_SYSTEM":"UTC","ELEMENT_SET_NO":"999","OBJECT_NAME":"STARLINK-3701","DECAY_DATE":null,"CLASSIFICATION_TYPE":"U","ARG_OF_PERICENTER":"54.5140","BSTAR":"-0.00000458710000","GP_ID":"213191632","OBJECT_ID":"2022-029H","PERIAPSIS":"538.691"},{"APOAPSIS":"541.016","MEAN_MOTION_DDOT":"0.0000000000000","TLE_LINE1":"1 52096U 22029J   22264.52562958 -.00000482  00000-0 -12194-4 0  9992","REV_AT_EPOCH":"2978","ECCENTRICITY":"0.00018200","EPHEMERIS_TYPE":"0","REF_FRAME":"TEME","MEAN_MOTION":"15.08836305","FILE":"3579752","NORAD_CAT_ID":"52096","CENTER_NAME":"EARTH","MEAN_MOTION_DOT":"-0.00000482","RA_OF_ASC_NODE":"358.6583","COUNTRY_CODE":"US","INCLINATION":"53.2187","SEMIMAJOR_AXIS":"6917.892","MEAN_ANOMALY":"312.7921","MEAN_ELEMENT_THEORY":"SGP4","LAUNCH_DATE":"2022-03-19","PERIOD":"95.438","EPOCH":"2022-09-21T12:36:54.395712","PERIAPSIS":"538.498","OBJECT_NAME":"STARLINK-3717","DECAY_DATE":null,"CLASSIFICATION_TYPE":"U","ARG_OF_PERICENTER":"47.3224","BSTAR":"-0.00001219400000","GP_ID":"213192884","OBJECT_ID":"2022-029J","TLE_LINE2":"2 52096  53.2187 358.6583 0001820  47.3224 312.7921 15.08836305 29781","SITE":"AFETR","TIME_SYSTEM":"UTC","ELEMENT_SET_NO":"999","RCS_SIZE":"LARGE","OBJECT_TYPE":"PAYLOAD"}];
